[{"OBJECT_NAME":"STARLINK-6354","OBJECT_ID":"2023-078T","EPOCH":"2026-03-13T15:31:32.172960","MEAN_MOTION":14.9834213,"ECCENTRICITY":0.00027949,"INCLINATION":69.9992,"RA_OF_ASC_NODE":314.5876,"ARG_OF_PERICENTER":253.088,"MEAN_ANOMALY":106.9973,"EPHEMERIS_TYPE":0,"CLASSIFICATION_TYPE":"U","NORAD_CAT_ID":56784,"ELEMENT_SET_NO":999,"REV_AT_EPOCH":15376,"BSTAR":0.0001002442,"MEAN_MOTION_DOT":1.104e-5,"MEAN_MOTION_DDOT":0},{"OBJECT_NAME":"STARLINK-5931","OBJECT_ID":"2023-078U","EPOCH":"2026-03-13T03:18:49.828608","MEAN_MOTION":14.98336519,"ECCENTRICITY":0.00028775,"INCLINATION":70.0006,"RA_OF_ASC_NODE":335.89,"ARG_OF_PERICENTER":269.2795,"MEAN_ANOMALY":90.8035,"EPHEMERIS_TYPE":0,"CLASSIFICATION_TYPE":"U","NORAD_CAT_ID":56785,"ELEMENT_SET_NO":999,"REV_AT_EPOCH":15388,"BSTAR":-0.00052803227,"MEAN_MOTION_DOT":-6.389e-5,"MEAN_MOTION_DDOT":0},{"OBJECT_NAME":"STARLINK-6341","OBJECT_ID":"2023-078V","EPOCH":"2026-03-13T02:30:25.575552","MEAN_MOTION":14.98336327,"ECCENTRICITY":0.00028027,"INCLINATION":69.9994,"RA_OF_ASC_NODE":315.9043,"ARG_OF_PERICENTER":267.5295,"MEAN_ANOMALY":92.5544,"EPHEMERIS_TYPE":0,"CLASSIFICATION_TYPE":"U","NORAD_CAT_ID":56786,"ELEMENT_SET_NO":999,"REV_AT_EPOCH":15368,"BSTAR":1.682096e-5,"MEAN_MOTION_DOT":1.08e-6,"MEAN_MOTION_DDOT":0},{"OBJECT_NAME":"STARLINK-6326","OBJECT_ID":"2023-078W","EPOCH":"2026-03-13T01:54:22.269024","MEAN_MOTION":14.98331151,"ECCENTRICITY":0.0001738,"INCLINATION":69.9996,"RA_OF_ASC_NODE":315.8171,"ARG_OF_PERICENTER":270.8095,"MEAN_ANOMALY":89.2865,"EPHEMERIS_TYPE":0,"CLASSIFICATION_TYPE":"U","NORAD_CAT_ID":56787,"ELEMENT_SET_NO":999,"REV_AT_EPOCH":15368,"BSTAR":-3.117443e-6,"MEAN_MOTION_DOT":-1.3e-6,"MEAN_MOTION_DDOT":0},{"OBJECT_NAME":"STARLINK-6336","OBJECT_ID":"2023-078X","EPOCH":"2026-03-13T02:24:25.531200","MEAN_MOTION":14.98329988,"ECCENTRICITY":0.00028729,"INCLINATION":69.9995,"RA_OF_ASC_NODE":315.889,"ARG_OF_PERICENTER":269.1474,"MEAN_ANOMALY":90.9356,"EPHEMERIS_TYPE":0,"CLASSIFICATION_TYPE":"U","NORAD_CAT_ID":56788,"ELEMENT_SET_NO":999,"REV_AT_EPOCH":15368,"BSTAR":-2.2836118e-5,"MEAN_MOTION_DOT":-3.65e-6,"MEAN_MOTION_DDOT":0},{"OBJECT_NAME":"STARLINK-6345","OBJECT_ID":"2023-078Z","EPOCH":"2026-03-13T14:49:08.573376","MEAN_MOTION":14.98317033,"ECCENTRICITY":0.00029618,"INCLINATION":69.9991,"RA_OF_ASC_NODE":294.5971,"ARG_OF_PERICENTER":271.1964,"MEAN_ANOMALY":88.8856,"EPHEMERIS_TYPE":0,"CLASSIFICATION_TYPE":"U","NORAD_CAT_ID":56790,"ELEMENT_SET_NO":999,"REV_AT_EPOCH":15425,"BSTAR":0.00036191795,"MEAN_MOTION_DOT":4.226e-5,"MEAN_MOTION_DDOT":0},{"OBJECT_NAME":"STARLINK-5977","OBJECT_ID":"2023-078AA","EPOCH":"2026-03-13T04:00:52.536672","MEAN_MOTION":14.98334289,"ECCENTRICITY":0.00030238,"INCLINATION":70.0005,"RA_OF_ASC_NODE":335.5927,"ARG_OF_PERICENTER":269.5156,"MEAN_ANOMALY":90.5656,"EPHEMERIS_TYPE":0,"CLASSIFICATION_TYPE":"U","NORAD_CAT_ID":56791,"ELEMENT_SET_NO":999,"REV_AT_EPOCH":15320,"BSTAR":4.4620452e-5,"MEAN_MOTION_DOT":4.39e-6,"MEAN_MOTION_DDOT":0},{"OBJECT_NAME":"STARLINK-6046","OBJECT_ID":"2023-078AB","EPOCH":"2026-03-13T03:24:51.116256","MEAN_MOTION":14.98338674,"ECCENTRICITY":0.00025907,"INCLINATION":70,"RA_OF_ASC_NODE":335.905,"ARG_OF_PERICENTER":273.0964,"MEAN_ANOMALY":86.9899,"EPHEMERIS_TYPE":0,"CLASSIFICATION_TYPE":"U","NORAD_CAT_ID":56792,"ELEMENT_SET_NO":999,"REV_AT_EPOCH":15319,"BSTAR":-0.00012606876,"MEAN_MOTION_DOT":-1.597e-5,"MEAN_MOTION_DDOT":0},{"OBJECT_NAME":"STARLINK-6052","OBJECT_ID":"2023-078AC","EPOCH":"2026-03-13T04:24:55.382112","MEAN_MOTION":14.98332013,"ECCENTRICITY":0.00024383,"INCLINATION":70.0006,"RA_OF_ASC_NODE":335.6491,"ARG_OF_PERICENTER":263.9246,"MEAN_ANOMALY":96.1635,"EPHEMERIS_TYPE":0,"CLASSIFICATION_TYPE":"U","NORAD_CAT_ID":56793,"ELEMENT_SET_NO":999,"REV_AT_EPOCH":15320,"BSTAR":-2.6357635e-5,"MEAN_MOTION_DOT":-4.07e-6,"MEAN_MOTION_DDOT":0},{"OBJECT_NAME":"STARLINK-6060","OBJECT_ID":"2023-078AD","EPOCH":"2026-03-13T02:12:24.019488","MEAN_MOTION":14.98329662,"ECCENTRICITY":0.00030579,"INCLINATION":69.9996,"RA_OF_ASC_NODE":315.8578,"ARG_OF_PERICENTER":270.7868,"MEAN_ANOMALY":89.2941,"EPHEMERIS_TYPE":0,"CLASSIFICATION_TYPE":"U","NORAD_CAT_ID":56794,"ELEMENT_SET_NO":999,"REV_AT_EPOCH":15368,"BSTAR":3.713108e-5,"MEAN_MOTION_DOT":3.5e-6,"MEAN_MOTION_DDOT":0},{"OBJECT_NAME":"STARLINK-6061","OBJECT_ID":"2023-078AE","EPOCH":"2026-03-13T01:36:17.165376","MEAN_MOTION":14.98475242,"ECCENTRICITY":0.00032705,"INCLINATION":69.9996,"RA_OF_ASC_NODE":315.7683,"ARG_OF_PERICENTER":272.0741,"MEAN_ANOMALY":88.0043,"EPHEMERIS_TYPE":0,"CLASSIFICATION_TYPE":"U","NORAD_CAT_ID":56795,"ELEMENT_SET_NO":999,"REV_AT_EPOCH":15368,"BSTAR":0.0012818406,"MEAN_MOTION_DOT":0.00015293,"MEAN_MOTION_DDOT":0},{"OBJECT_NAME":"STARLINK-6049","OBJECT_ID":"2023-078AF","EPOCH":"2026-03-13T03:12:49.989024","MEAN_MOTION":14.98329477,"ECCENTRICITY":0.00026202,"INCLINATION":70.0004,"RA_OF_ASC_NODE":335.8759,"ARG_OF_PERICENTER":270.6936,"MEAN_ANOMALY":89.3923,"EPHEMERIS_TYPE":0,"CLASSIFICATION_TYPE":"U","NORAD_CAT_ID":56796,"ELEMENT_SET_NO":999,"REV_AT_EPOCH":15319,"BSTAR":-3.0727587e-5,"MEAN_MOTION_DOT":-4.6e-6,"MEAN_MOTION_DDOT":0},{"OBJECT_NAME":"STARLINK-6058","OBJECT_ID":"2023-078AG","EPOCH":"2026-03-13T03:30:51.737760","MEAN_MOTION":14.98333981,"ECCENTRICITY":0.0002662,"INCLINATION":70,"RA_OF_ASC_NODE":335.9139,"ARG_OF_PERICENTER":269.6844,"MEAN_ANOMALY":90.401,"EPHEMERIS_TYPE":0,"CLASSIFICATION_TYPE":"U","NORAD_CAT_ID":56797,"ELEMENT_SET_NO":999,"REV_AT_EPOCH":15319,"BSTAR":-1.0619109e-5,"MEAN_MOTION_DOT":-2.2e-6,"MEAN_MOTION_DDOT":0},{"OBJECT_NAME":"STARLINK-5953","OBJECT_ID":"2023-078AJ","EPOCH":"2026-03-13T02:54:48.119328","MEAN_MOTION":14.98330911,"ECCENTRICITY":0.00024891,"INCLINATION":70.0005,"RA_OF_ASC_NODE":335.8274,"ARG_OF_PERICENTER":266.4619,"MEAN_ANOMALY":93.6255,"EPHEMERIS_TYPE":0,"CLASSIFICATION_TYPE":"U","NORAD_CAT_ID":56799,"ELEMENT_SET_NO":999,"REV_AT_EPOCH":15319,"BSTAR":-2.1975679e-5,"MEAN_MOTION_DOT":-3.55e-6,"MEAN_MOTION_DDOT":0},{"OBJECT_NAME":"STARLINK-6036","OBJECT_ID":"2023-078AK","EPOCH":"2026-03-13T03:00:47.964960","MEAN_MOTION":14.98337259,"ECCENTRICITY":0.00029023,"INCLINATION":69.9999,"RA_OF_ASC_NODE":335.8456,"ARG_OF_PERICENTER":266.7712,"MEAN_ANOMALY":93.3115,"EPHEMERIS_TYPE":0,"CLASSIFICATION_TYPE":"U","NORAD_CAT_ID":56800,"ELEMENT_SET_NO":999,"REV_AT_EPOCH":15319,"BSTAR":3.2029579e-5,"MEAN_MOTION_DOT":2.89e-6,"MEAN_MOTION_DDOT":0},{"OBJECT_NAME":"STARLINK-6087","OBJECT_ID":"2023-078AL","EPOCH":"2026-03-13T01:48:22.465728","MEAN_MOTION":14.98324134,"ECCENTRICITY":0.00029999,"INCLINATION":70.0002,"RA_OF_ASC_NODE":315.8001,"ARG_OF_PERICENTER":275.0753,"MEAN_ANOMALY":85.0064,"EPHEMERIS_TYPE":0,"CLASSIFICATION_TYPE":"U","NORAD_CAT_ID":56801,"ELEMENT_SET_NO":999,"REV_AT_EPOCH":15368,"BSTAR":-2.7555656e-5,"MEAN_MOTION_DOT":-4.22e-6,"MEAN_MOTION_DDOT":0}]
