STARLINK-6354           
1 56784U 23078T   26072.64690015  .00001104  00000+0  10024-3 0  9993
2 56784  69.9992 314.5876 0002794 253.0880 106.9973 14.98342130153760
STARLINK-5931           
1 56785U 23078U   26072.13807672 -.00006389  00000+0 -52803-3 0  9990
2 56785  70.0006 335.8900 0002877 269.2795  90.8035 14.98336519153887
STARLINK-6341           
1 56786U 23078V   26072.10446268  .00000108  00000+0  16821-4 0  9990
2 56786  69.9994 315.9043 0002802 267.5295  92.5544 14.98336327153681
STARLINK-6326           
1 56787U 23078W   26072.07942441 -.00000130  00000+0 -31174-5 0  9997
2 56787  69.9996 315.8171 0001738 270.8095  89.2865 14.98331151153686
STARLINK-6336           
1 56788U 23078X   26072.10029550 -.00000365  00000+0 -22836-4 0  9993
2 56788  69.9995 315.8890 0002872 269.1474  90.9356 14.98329988153685
STARLINK-6345           
1 56790U 23078Z   26072.61746034  .00004226  00000+0  36192-3 0  9992
2 56790  69.9991 294.5971 0002961 271.1964  88.8856 14.98317033154256
STARLINK-5977           
1 56791U 23078AA  26072.16727473  .00000439  00000+0  44620-4 0  9997
2 56791  70.0005 335.5927 0003023 269.5156  90.5656 14.98334289153201
STARLINK-6046           
1 56792U 23078AB  26072.14225829 -.00001597  00000+0 -12607-3 0  9991
2 56792  70.0000 335.9050 0002590 273.0964  86.9899 14.98338674153191
STARLINK-6052           
1 56793U 23078AC  26072.18397433 -.00000407  00000+0 -26358-4 0  9995
2 56793  70.0006 335.6491 0002438 263.9246  96.1635 14.98332013153200
STARLINK-6060           
1 56794U 23078AD  26072.09194467  .00000350  00000+0  37131-4 0  9994
2 56794  69.9996 315.8578 0003057 270.7868  89.2941 14.98329662153687
STARLINK-6061           
1 56795U 23078AE  26072.06686534  .00015293  00000+0  12818-2 0  9998
2 56795  69.9996 315.7683 0003270 272.0741  88.0043 14.98475242153682
STARLINK-6049           
1 56796U 23078AF  26072.13391191 -.00000460  00000+0 -30728-4 0  9993
2 56796  70.0004 335.8759 0002620 270.6936  89.3923 14.98329477153196
STARLINK-6058           
1 56797U 23078AG  26072.14643215 -.00000220  00000+0 -10619-4 0  9993
2 56797  70.0000 335.9139 0002662 269.6844  90.4010 14.98333981153193
STARLINK-5953           
1 56799U 23078AJ  26072.12139027 -.00000355  00000+0 -21976-4 0  9991
2 56799  70.0005 335.8274 0002489 266.4619  93.6255 14.98330911153197
STARLINK-6036           
1 56800U 23078AK  26072.12555515  .00000289  00000+0  32030-4 0  9995
2 56800  69.9999 335.8456 0002902 266.7712  93.3115 14.98337259153192
STARLINK-6087           
1 56801U 23078AL  26072.07526002 -.00000422  00000+0 -27556-4 0  9997
2 56801  70.0002 315.8001 0002999 275.0753  85.0064 14.98324134153682
